{
  "type": "FeatureCollection",
  "features": [
    {
      "type": "Feature",
      "properties": {
        "norad_id": 29268,
        "name": "ARIRANG-2 (KOMPSAT-2)",
        "group": "resource",
        "lat": 24.69748713929159,
        "lon": 10.007571405955774,
        "alt_km": 681.7608958483752,
        "timestamp": "2025-12-24T11:32:59.660367+00:00",
        "meta_object_name": "ARIRANG-2 (KOMPSAT-2)",
        "meta_object_id": "2006-031A",
        "meta_epoch": "2025-12-24T04:53:32.779104",
        "meta_mean_motion": 14.64503351,
        "meta_eccentricity": 0.0013154,
        "meta_inclination": 97.8254,
        "meta_ra_of_asc_node": 186.1176,
        "meta_arg_of_pericenter": 269.7779,
        "meta_mean_anomaly": 223.7072,
        "meta_ephemeris_type": 0,
        "meta_classification_type": "U",
        "meta_norad_cat_id": 29268,
        "meta_element_set_no": 999,
        "meta_rev_at_epoch": 3586,
        "meta_bstar": 9.2628e-05,
        "meta_mean_motion_dot": 4.46e-06,
        "meta_mean_motion_ddot": 0,
        "tle_line1": "1 29268U 06031A   25358.20385161  .00000446  00000+0  92628-4 0  9990",
        "tle_line2": "2 29268  97.8254 186.1176 0013154 269.7779 223.7072 14.64503351 35862"
      },
      "geometry": {
        "type": "Point",
        "coordinates": [
          10.007571405955774,
          24.69748713929159
        ]
      }
    },
    {
      "type": "Feature",
      "properties": {
        "norad_id": 29709,
        "name": "LAPAN-TUBSAT",
        "group": "resource",
        "lat": -79.85203260907431,
        "lon": 115.91368972807919,
        "alt_km": 625.3740996822962,
        "timestamp": "2025-12-24T11:32:59.660379+00:00",
        "meta_object_name": "LAPAN-TUBSAT",
        "meta_object_id": "2007-001A",
        "meta_epoch": "2025-12-24T05:30:58.815360",
        "meta_mean_motion": 14.85688168,
        "meta_eccentricity": 0.00133,
        "meta_inclination": 98.1262,
        "meta_ra_of_asc_node": 348.6229,
        "meta_arg_of_pericenter": 40.0416,
        "meta_mean_anomaly": 320.1776,
        "meta_ephemeris_type": 0,
        "meta_classification_type": "U",
        "meta_norad_cat_id": 29709,
        "meta_element_set_no": 999,
        "meta_rev_at_epoch": 2517,
        "meta_bstar": 9.2186e-05,
        "meta_mean_motion_dot": 7.43e-06,
        "meta_mean_motion_ddot": 0,
        "tle_line1": "1 29709U 07001A   25358.22984740  .00000743  00000+0  92186-4 0  9997",
        "tle_line2": "2 29709  98.1262 348.6229 0013300  40.0416 320.1776 14.85688168 25179"
      },
      "geometry": {
        "type": "Point",
        "coordinates": [
          115.91368972807919,
          -79.85203260907431
        ]
      }
    },
    {
      "type": "Feature",
      "properties": {
        "norad_id": 31113,
        "name": "HAIYANG-1B",
        "group": "resource",
        "lat": -0.1851093756887873,
        "lon": -17.697975587932994,
        "alt_km": 781.6875287134244,
        "timestamp": "2025-12-24T11:32:59.660390+00:00",
        "meta_object_name": "HAIYANG-1B",
        "meta_object_id": "2007-010A",
        "meta_epoch": "2025-12-23T22:07:32.109024",
        "meta_mean_motion": 14.3096859,
        "meta_eccentricity": 0.0013674,
        "meta_inclination": 98.3327,
        "meta_ra_of_asc_node": 341.7386,
        "meta_arg_of_pericenter": 6.0187,
        "meta_mean_anomaly": 354.1158,
        "meta_ephemeris_type": 0,
        "meta_classification_type": "U",
        "meta_norad_cat_id": 31113,
        "meta_element_set_no": 999,
        "meta_rev_at_epoch": 97556,
        "meta_bstar": 5.6729e-05,
        "meta_mean_motion_dot": 1.08e-06,
        "meta_mean_motion_ddot": 0,
        "tle_line1": "1 31113U 07010A   25357.92189941  .00000108  00000+0  56729-4 0  9993",
        "tle_line2": "2 31113  98.3327 341.7386 0013674   6.0187 354.1158 14.30968590975562"
      },
      "geometry": {
        "type": "Point",
        "coordinates": [
          -17.697975587932994,
          -0.1851093756887873
        ]
      }
    },
    {
      "type": "Feature",
      "properties": {
        "norad_id": 31598,
        "name": "COSMO-SKYMED 1",
        "group": "resource",
        "lat": -71.0006987215973,
        "lon": -152.3101896858887,
        "alt_km": 587.8459561896389,
        "timestamp": "2025-12-24T11:32:59.660401+00:00",
        "meta_object_name": "COSMO-SKYMED 1",
        "meta_object_id": "2007-023A",
        "meta_epoch": "2025-12-24T03:50:49.854336",
        "meta_mean_motion": 14.95848756,
        "meta_eccentricity": 0.0001357,
        "meta_inclination": 97.884,
        "meta_ra_of_asc_node": 183.635,
        "meta_arg_of_pericenter": 78.4103,
        "meta_mean_anomaly": 281.7269,
        "meta_ephemeris_type": 0,
        "meta_classification_type": "U",
        "meta_norad_cat_id": 31598,
        "meta_element_set_no": 999,
        "meta_rev_at_epoch": 361,
        "meta_bstar": 0.00030919,
        "meta_mean_motion_dot": 3.395e-05,
        "meta_mean_motion_ddot": 0,
        "tle_line1": "1 31598U 07023A   25358.16029924  .00003395  00000+0  30919-3 0  9998",
        "tle_line2": "2 31598  97.8840 183.6350 0001357  78.4103 281.7269 14.95848756  3611"
      },
      "geometry": {
        "type": "Point",
        "coordinates": [
          -152.3101896858887,
          -71.0006987215973
        ]
      }
    },
    {
      "type": "Feature",
      "properties": {
        "norad_id": 31698,
        "name": "TERRASAR-X",
        "group": "resource",
        "lat": -27.901775439687352,
        "lon": 179.71977003233928,
        "alt_km": 515.0777785068485,
        "timestamp": "2025-12-24T11:32:59.660411+00:00",
        "meta_object_name": "TERRASAR-X",
        "meta_object_id": "2007-026A",
        "meta_epoch": "2025-12-23T12:30:19.023264",
        "meta_mean_motion": 15.19149386,
        "meta_eccentricity": 0.00017705,
        "meta_inclination": 97.4442,
        "meta_ra_of_asc_node": 2.7437,
        "meta_arg_of_pericenter": 81.4954,
        "meta_mean_anomaly": 278.6481,
        "meta_ephemeris_type": 0,
        "meta_classification_type": "U",
        "meta_norad_cat_id": 31698,
        "meta_element_set_no": 999,
        "meta_rev_at_epoch": 2655,
        "meta_bstar": 4.2968524e-05,
        "meta_mean_motion_dot": 8.35e-06,
        "meta_mean_motion_ddot": 0,
        "tle_line1": "1 31698U 07026A   25357.52105351  .00000835  00000+0  42969-4 0  9995",
        "tle_line2": "2 31698  97.4442   2.7437 0001770  81.4954 278.6481 15.19149386 26559"
      },
      "geometry": {
        "type": "Point",
        "coordinates": [
          179.71977003233928,
          -27.901775439687352
        ]
      }
    },
    {
      "type": "Feature",
      "properties": {
        "norad_id": 32060,
        "name": "WORLDVIEW-1 (WV-1)",
        "group": "resource",
        "lat": 69.77555391260084,
        "lon": 95.18467921063707,
        "alt_km": 486.5810359844145,
        "timestamp": "2025-12-24T11:32:59.660422+00:00",
        "meta_object_name": "WORLDVIEW-1 (WV-1)",
        "meta_object_id": "2007-041A",
        "meta_epoch": "2025-12-24T01:47:01.893408",
        "meta_mean_motion": 15.2393588,
        "meta_eccentricity": 0.0003274,
        "meta_inclination": 97.3827,
        "meta_ra_of_asc_node": 115.3904,
        "meta_arg_of_pericenter": 359.1112,
        "meta_mean_anomaly": 1.0119,
        "meta_ephemeris_type": 0,
        "meta_classification_type": "U",
        "meta_norad_cat_id": 32060,
        "meta_element_set_no": 999,
        "meta_rev_at_epoch": 1620,
        "meta_bstar": 0.00035094,
        "meta_mean_motion_dot": 8.417e-05,
        "meta_mean_motion_ddot": 0,
        "tle_line1": "1 32060U 07041A   25358.07432747  .00008417  00000+0  35094-3 0  9993",
        "tle_line2": "2 32060  97.3827 115.3904 0003274 359.1112   1.0119 15.23935880 16205"
      },
      "geometry": {
        "type": "Point",
        "coordinates": [
          95.18467921063707,
          69.77555391260084
        ]
      }
    },
    {
      "type": "Feature",
      "properties": {
        "norad_id": 32289,
        "name": "YAOGAN-3",
        "group": "resource",
        "lat": -65.5262174440915,
        "lon": -172.60933230035423,
        "alt_km": 606.2716419302687,
        "timestamp": "2025-12-24T11:32:59.660433+00:00",
        "meta_object_name": "YAOGAN-3",
        "meta_object_id": "2007-055A",
        "meta_epoch": "2025-12-24T05:36:37.963872",
        "meta_mean_motion": 14.89909982,
        "meta_eccentricity": 0.000122,
        "meta_inclination": 97.8349,
        "meta_ra_of_asc_node": 24.7542,
        "meta_arg_of_pericenter": 83.3167,
        "meta_mean_anomaly": 276.8189,
        "meta_ephemeris_type": 0,
        "meta_classification_type": "U",
        "meta_norad_cat_id": 32289,
        "meta_element_set_no": 999,
        "meta_rev_at_epoch": 97980,
        "meta_bstar": 0.00018415,
        "meta_mean_motion_dot": 1.716e-05,
        "meta_mean_motion_ddot": 0,
        "tle_line1": "1 32289U 07055A   25358.23377273  .00001716  00000+0  18415-3 0  9994",
        "tle_line2": "2 32289  97.8349  24.7542 0001220  83.3167 276.8189 14.89909982979806"
      },
      "geometry": {
        "type": "Point",
        "coordinates": [
          -172.60933230035423,
          -65.5262174440915
        ]
      }
    }
  ]
}